STARLINK-2022           
1 47643U 21012Z   23269.53359121 -.00004334  00000+0 -27244-3 0  9998
2 47643  53.0532 110.1291 0001155 130.5656 229.5434 15.06369960145348
